{
    "links": {
        "self": "http://www.neowsapp.com/rest/v1/neo/3250110?api_key=iIulBulltgU6a56xZRHN4H3l9WmuAYTsLGpBGhQ2"
    },
    "id": "3250110",
    "neo_reference_id": "3250110",
    "name": "(2004 QO5)",
    "designation": "2004 QO5",
    "nasa_jpl_url": "http://ssd.jpl.nasa.gov/sbdb.cgi?sstr=3250110",
    "absolute_magnitude_h": 25.9,
    "estimated_diameter": {
        "kilometers": {
            "estimated_diameter_min": 0.0175612318,
            "estimated_diameter_max": 0.0392681082
        },
        "meters": {
            "estimated_diameter_min": 17.561231848,
            "estimated_diameter_max": 39.2681081809
        },
        "miles": {
            "estimated_diameter_min": 0.0109120402,
            "estimated_diameter_max": 0.0244000636
        },
        "feet": {
            "estimated_diameter_min": 57.6155918963,
            "estimated_diameter_max": 128.8323800441
        }
    },
    "is_potentially_hazardous_asteroid": false,
    "close_approach_data": [
        {
            "close_approach_date": "2004-08-27",
            "close_approach_date_full": "2004-Aug-27 16:53",
            "epoch_date_close_approach": 1093625580000,
            "relative_velocity": {
                "kilometers_per_second": "9.5208331802",
                "kilometers_per_hour": "34274.9994486409",
                "miles_per_hour": "21297.1517407403"
            },
            "miss_distance": {
                "astronomical": "0.0348821535",
                "lunar": "13.5691577115",
                "kilometers": "5218295.864613045",
                "miles": "3242498.693608221"
            },
            "orbiting_body": "Earth"
        }
    ],
    "orbital_data": {
        "orbit_id": "8",
        "orbit_determination_date": "2017-04-06 09:24:09",
        "first_observation_date": "2004-08-20",
        "last_observation_date": "2004-08-25",
        "data_arc_in_days": 5,
        "observations_used": 12,
        "orbit_uncertainty": "9",
        "minimum_orbit_intersection": ".0312232",
        "jupiter_tisserand_invariant": "3.680",
        "epoch_osculation": "2453240.5",
        "eccentricity": ".4975475907076441",
        "semi_major_axis": "1.984016900222512",
        "inclination": "9.209663400563695",
        "ascending_node_longitude": "149.9657724166246",
        "orbital_period": "1020.743158411873",
        "perihelion_distance": ".9968740715935528",
        "perihelion_argument": "213.7612317686938",
        "aphelion_distance": "2.971159728851471",
        "perihelion_time": "2453269.094610638539",
        "mean_anomaly": "349.9151321808612",
        "mean_motion": ".3526842154495626",
        "equinox": "J2000",
        "orbit_class": {
            "orbit_class_type": "APO",
            "orbit_class_description": "Near-Earth asteroid orbits which cross the Earth’s orbit similar to that of 1862 Apollo",
            "orbit_class_range": "a (semi-major axis) > 1.0 AU; q (perihelion) < 1.017 AU"
        }
    },
    "is_sentry_object": false
}